[{"OBJECT_NAME":"STARLINK-3724","OBJECT_ID":"2022-041AW","EPOCH":"2026-03-09T09:36:04.916160","MEAN_MOTION":15.08841424,"ECCENTRICITY":0.0001474,"INCLINATION":53.2173,"RA_OF_ASC_NODE":100.5251,"ARG_OF_PERICENTER":86.0377,"MEAN_ANOMALY":274.0784,"EPHEMERIS_TYPE":0,"CLASSIFICATION_TYPE":"U","NORAD_CAT_ID":52305,"ELEMENT_SET_NO":999,"REV_AT_EPOCH":21446,"BSTAR":0.00040370289,"MEAN_MOTION_DOT":6.143e-5,"MEAN_MOTION_DDOT":0},{"OBJECT_NAME":"AAC-HSI-SAT1","OBJECT_ID":"2023-054AZ","EPOCH":"2026-03-09T21:58:39.446112","MEAN_MOTION":15.121108,"ECCENTRICITY":0.00115868,"INCLINATION":97.3836,"RA_OF_ASC_NODE":308.6521,"ARG_OF_PERICENTER":105.3166,"MEAN_ANOMALY":254.9346,"EPHEMERIS_TYPE":0,"CLASSIFICATION_TYPE":"U","NORAD_CAT_ID":56225,"ELEMENT_SET_NO":999,"REV_AT_EPOCH":16036,"BSTAR":0.00016323049,"MEAN_MOTION_DOT":2.752e-5,"MEAN_MOTION_DDOT":0}]
